NORAD_CAT_ID,OBJECT_NAME,OBJECT_TYPE,EPOCH,MEAN_MOTION,ECCENTRICITY,INCLINATION,RA_OF_ASC_NODE,ARG_OF_PERICENTER,MEAN_ANOMALY,BSTAR,MEAN_MOTION_DOT,MEAN_MOTION_DDOT,TLE_LINE0,TLE_LINE1,TLE_LINE2,SEMIMAJOR_AXIS,PERIOD,APOGEE,PERIGEE,DECAYED
53797.0,STARLINK-4723,PAYLOAD,2024-01-03 19:46:39,15.08840425,0.000143,53.2158,246.4677,91.7704,268.3452,-7.435e-05,-1.471e-05,0.0,0 STARLINK-4723,1 53797U 22111AA  24003.82407131 -.00001471  00000-0 -74350-4 0  9991,2 53797  53.2158 246.4677 0001430  91.7704 268.3452 15.08840425 72746,6917.879,95.438,540.733,538.755,0.0
53797.0,STARLINK-4723,PAYLOAD,2024-01-03 21:22:02,15.08840694,0.0001497,53.2157,246.1693,97.1449,262.9714,-6.4447e-05,-1.314e-05,0.0,0 STARLINK-4723,1 53797U 22111AA  24003.89031112 -.00001314  00000-0 -64447-4 0  9992,2 53797  53.2157 246.1693 0001497  97.1449 262.9714 15.08840694 73547,6917.878,95.438,540.779,538.708,0.0
53797.0,STARLINK-4723,PAYLOAD,2024-01-03 22:57:26,15.08842913,0.0001459,53.2165,245.872,95.2821,264.8338,-2.3918e-05,-6.69e-06,0.0,0 STARLINK-4723,1 53797U 22111AA  24003.95655300 -.00000669  00000-0 -23918-4 0  9990,2 53797  53.2165 245.8720 0001459  95.2821 264.8338 15.08842913 73554,6917.871,95.437,540.746,538.727,0.0
53797.0,STARLINK-4723,PAYLOAD,2024-01-04 21:12:50,15.08835286,0.0001368,53.2159,241.7099,98.3492,261.7656,5.5055e-05,5.88e-06,0.0,0 STARLINK-4723,1 53797U 22111AA  24004.88391656  .00000588  00000-0  55055-4 0  9999,2 53797  53.2159 241.7099 0001368  98.3492 261.7656 15.08835286 72900,6917.895,95.438,540.706,538.813,0.0
53797.0,STARLINK-4723,PAYLOAD,2024-01-05 00:23:36,15.0883725,0.0001375,53.2159,241.115,99.4682,260.6466,6.5975e-05,7.62e-06,0.0,0 STARLINK-4723,1 53797U 22111AA  24005.01639516  .00000762  00000-0  65975-4 0  9991,2 53797  53.2159 241.1150 0001375  99.4682 260.6466 15.08837250 73713,6917.889,95.438,540.705,538.803,0.0
53797.0,STARLINK-4723,PAYLOAD,2024-01-05 21:03:37,15.08834264,0.000138,53.2161,237.2482,98.9342,261.1806,6.1769e-05,6.95e-06,0.0,0 STARLINK-4723,1 53797U 22111AA  24005.87752072  .00000695  00000-0  61769-4 0  9990,2 53797  53.2161 237.2482 0001380  98.9342 261.1806 15.08834264 73843,6917.898,95.438,540.718,538.808,0.0
53797.0,STARLINK-4723,PAYLOAD,2024-01-06 00:14:23,15.08836753,0.0001368,53.2161,236.6537,96.773,263.3418,7.7264e-05,9.42e-06,0.0,0 STARLINK-4723,1 53797U 22111AA  24006.00999919  .00000942  00000-0  77264-4 0  9991,2 53797  53.2161 236.6537 0001368  96.7730 263.3418 15.08836753 73073,6917.89,95.438,540.702,538.809,0.0
53797.0,STARLINK-4723,PAYLOAD,2024-01-06 22:29:47,15.08840269,0.0001343,53.2161,232.4909,94.1498,265.9648,9.1853e-05,1.174e-05,0.0,0 STARLINK-4723,1 53797U 22111AA  24006.93735855  .00001174  00000-0  91853-4 0  9998,2 53797  53.2161 232.4909 0001343  94.1498 265.9648 15.08840269 74000,6917.88,95.438,540.674,538.815,0.0
53797.0,STARLINK-4723,PAYLOAD,2024-01-07 00:05:10,15.0884198,0.000136,53.2161,232.1929,96.1103,264.0044,0.00010424,1.372e-05,0.0,0 STARLINK-4723,1 53797U 22111AA  24007.00359705  .00001372  00000-0  10424-3 0  9997,2 53797  53.2161 232.1929 0001360  96.1103 264.0044 15.08841980 74015,6917.874,95.437,540.68,538.799,0.0
53797.0,STARLINK-4723,PAYLOAD,2024-01-07 19:09:48,15.08846362,0.0001402,53.2165,228.6236,90.3177,269.7976,0.00012146,1.646e-05,0.0,0 STARLINK-4723,1 53797U 22111AA  24007.79847426  .00001646  00000-0  12146-3 0  9992,2 53797  53.2165 228.6236 0001402  90.3177 269.7976 15.08846362 73344,6917.861,95.437,540.696,538.756,0.0
53797.0,STARLINK-4723,PAYLOAD,2024-01-07 22:20:30,15.08895051,0.0001428,53.2166,228.0287,86.8593,273.2563,0.00053879,8.31e-05,0.0,0 STARLINK-4723,1 53797U 22111AA  24007.93091423  .00008310  00000-0  53879-3 0  9999,2 53797  53.2166 228.0287 0001428  86.8593 273.2563 15.08895051 74156,6917.712,95.434,540.565,538.589,0.0
53797.0,STARLINK-4723,PAYLOAD,2024-01-07 23:55:53,15.08896348,0.0001427,53.2164,227.7324,85.6514,274.4641,0.00054026,8.334e-05,0.0,0 STARLINK-4723,1 53797U 22111AA  24007.99715190  .00008334  00000-0  54026-3 0  9990,2 53797  53.2164 227.7324 0001427  85.6514 274.4641 15.08896348 73374,6917.708,95.434,540.56,538.586,0.0
53797.0,STARLINK-4723,PAYLOAD,2024-01-08 19:00:34,15.08843074,0.0001278,53.2177,224.1612,84.0867,276.0271,2.1311e-05,5.1e-07,0.0,0 STARLINK-4723,1 53797U 22111AA  24008.79207136  .00000051  00000-0  21311-4 0  9995,2 53797  53.2177 224.1612 0001278  84.0867 276.0271 15.08843074 73495,6917.871,95.437,540.62,538.852,0.0
53797.0,STARLINK-4723,PAYLOAD,2024-01-08 22:11:21,15.0883055,0.0001286,53.2156,223.5791,66.4441,293.6686,9.7333e-05,1.261e-05,0.0,0 STARLINK-4723,1 53797U 22111AA  24008.92455782  .00001261  00000-0  97333-4 0  9993,2 53797  53.2156 223.5791 0001286  66.4441 293.6686 15.08830550 74305,6917.909,95.438,540.664,538.885,0.0
53797.0,STARLINK-4723,PAYLOAD,2024-01-08 23:46:44,15.08834723,0.0001395,53.2168,223.2705,105.8067,254.3079,-5.6147e-05,-1.181e-05,0.0,0 STARLINK-4723,1 53797U 22111AA  24008.99079691 -.00001181  00000-0 -56147-4 0  9992,2 53797  53.2168 223.2705 0001395 105.8067 254.3079 15.08834723 73522,6917.897,95.438,540.727,538.796,0.0
53797.0,STARLINK-4723,PAYLOAD,2024-01-09 18:51:22,15.08859589,0.0001256,53.2156,219.7031,89.2888,270.8248,-0.0004398,-7.284e-05,0.0,0 STARLINK-4723,1 53797U 22111AA  24009.78567683 -.00007284  00000-0 -43980-3 0  9993,2 53797  53.2156 219.7031 0001256  89.2888 270.8248 15.08859589 73644,6917.821,95.436,540.554,538.817,0.0
53797.0,STARLINK-4723,PAYLOAD,2024-01-10 18:42:09,15.08831191,0.0001314,53.216,215.2418,106.0645,254.0492,0.00017151,2.442e-05,0.0,0 STARLINK-4723,1 53797U 22111AA  24010.77927762  .00002442  00000-0  17151-3 0  9992,2 53797  53.2160 215.2418 0001314 106.0645 254.0492 15.08831191 73793,6917.907,95.438,540.681,538.863,0.0
53797.0,STARLINK-4723,PAYLOAD,2024-01-11 13:46:47,15.0883959,0.0001388,53.2155,211.6758,104.3455,255.7692,0.00021708,3.169e-05,0.0,0 STARLINK-4723,1 53797U 22111AA  24011.57416149  .00003169  00000-0  21708-3 0  9993,2 53797  53.2155 211.6758 0001388 104.3455 255.7692 15.08839590 74708,6917.882,95.438,540.707,538.786,0.0
53797.0,STARLINK-4723,PAYLOAD,2024-01-11 20:08:20,15.08842788,0.0001263,53.2148,210.4852,91.6041,268.5096,0.00023818,3.505e-05,0.0,0 STARLINK-4723,1 53797U 22111AA  24011.83912058  .00003505  00000-0  23818-3 0  9990,2 53797  53.2148 210.4852 0001263  91.6041 268.5096 15.08842788 73952,6917.872,95.437,540.611,538.863,0.0
53797.0,STARLINK-4723,PAYLOAD,2024-01-12 12:02:11,15.0883728,0.000129,53.2145,207.5121,90.4335,269.6805,4.3041e-05,3.97e-06,0.0,0 STARLINK-4723,1 53797U 22111AA  24012.50152422  .00000397  00000-0  43041-4 0  9993,2 53797  53.2145 207.5121 0001290  90.4335 269.6805 15.08837280 74051,6917.889,95.438,540.646,538.861,0.0
53797.0,STARLINK-4723,PAYLOAD,2024-01-12 18:23:44,15.08833228,0.0001296,53.2148,206.3217,90.7082,269.4059,-4.1274e-05,-9.45e-06,0.0,0 STARLINK-4723,1 53797U 22111AA  24012.76648650 -.00000945  00000-0 -41274-4 0  9991,2 53797  53.2148 206.3217 0001296  90.7082 269.4059 15.08833228 74883,6917.901,95.438,540.663,538.87,0.0
53797.0,STARLINK-4723,PAYLOAD,2024-01-13 19:49:54,15.08842364,0.0001257,53.2161,201.5639,85.8986,274.215,7.0483e-05,8.34e-06,0.0,0 STARLINK-4723,1 53797U 22111AA  24013.82632620  .00000834  00000-0  70483-4 0  9998,2 53797  53.2161 201.5639 0001257  85.8986 274.2150 15.08842364 74256,6917.873,95.437,540.608,538.869,0.0
53797.0,STARLINK-4723,PAYLOAD,2024-01-14 11:43:46,15.08840226,0.0001076,53.2169,198.5924,86.151,273.9605,0.00010367,1.363e-05,0.0,0 STARLINK-4723,1 53797U 22111AA  24014.48872760  .00001363  00000-0  10367-3 0  9994,2 53797  53.2169 198.5924 0001076  86.1510 273.9605 15.08840226 75147,6917.88,95.438,540.489,539.0,0.0
53797.0,STARLINK-4723,PAYLOAD,2024-01-14 19:40:41,15.08840684,0.0001269,53.2161,197.1035,89.828,270.2857,0.00015266,2.143e-05,0.0,0 STARLINK-4723,1 53797U 22111AA  24014.81992760  .00002143  00000-0  15266-3 0  9994,2 53797  53.2161 197.1035 0001269  89.8280 270.2857 15.08840684 75197,6917.878,95.438,540.621,538.865,0.0
53797.0,STARLINK-4723,PAYLOAD,2024-01-15 11:34:32,15.08847353,0.0001375,53.2171,194.131,85.4818,274.6332,0.00012299,1.67e-05,0.0,0 STARLINK-4723,1 53797U 22111AA  24015.48232461  .00001670  00000-0  12299-3 0  9990,2 53797  53.2171 194.1310 0001375  85.4818 274.6332 15.08847353 74508,6917.858,95.437,540.674,538.772,0.0
53797.0,STARLINK-4723,PAYLOAD,2024-01-15 19:31:28,15.08849104,0.0001426,53.2164,192.6444,82.0633,278.0521,0.00016543,2.346e-05,0.0,0 STARLINK-4723,1 53797U 22111AA  24015.81352274  .00002346  00000-0  16543-3 0  9999,2 53797  53.2164 192.6444 0001426  82.0633 278.0521 15.08849104 75343,6917.853,95.437,540.704,538.731,0.0
53797.0,STARLINK-4723,PAYLOAD,2024-01-16 11:25:20,15.08841769,0.0001723,53.2169,189.6722,68.8688,291.2488,7.0778e-05,8.39e-06,0.0,0 STARLINK-4723,1 53797U 22111AA  24016.47592741  .00000839  00000-0  70778-4 0  9993,2 53797  53.2169 189.6722 0001723  68.8688 291.2488 15.08841769 74656,6917.875,95.437,540.932,538.548,0.0
53797.0,STARLINK-4723,PAYLOAD,2024-01-16 17:46:52,15.08841017,0.0001336,53.2165,188.4811,93.5221,266.5924,4.3051e-05,3.97e-06,0.0,0 STARLINK-4723,1 53797U 22111AA  24016.74088656  .00000397  00000-0  43051-4 0  9991,2 53797  53.2165 188.4811 0001336  93.5221 266.5924 15.08841017 75484,6917.877,95.437,540.667,538.818,0.0
53797.0,STARLINK-4723,PAYLOAD,2024-01-17 14:26:53,15.08843912,0.0001184,53.2164,184.6129,106.1886,253.9237,-1.1418e-05,-4.7e-06,0.0,0 STARLINK-4723,1 53797U 22111AA  24017.60200404 -.00000470  00000-0 -11418-4 0  9990,2 53797  53.2164 184.6129 0001184 106.1886 253.9237 15.08843912 75610,6917.868,95.437,540.553,538.914,0.0
53797.0,STARLINK-4723,PAYLOAD,2024-01-17 17:37:39,15.08847556,0.0001247,53.2162,184.0186,97.1157,262.9977,1.9201e-05,1.8e-07,0.0,0 STARLINK-4723,1 53797U 22111AA  24017.73448100  .00000018  00000-0  19201-4 0  9995,2 53797  53.2162 184.0186 0001247  97.1157 262.9977 15.08847556 74848,6917.857,95.437,540.585,538.86,0.0
